DMSP 5D-3 F16 (USA 172) 
1 28054U 03048A   26126.99516860  .00000019  00000+0  33749-4 0  9994
2 28054  98.9919 150.5458 0005903 262.5092 154.9816 14.14479054163662
METEOSAT-9 (MSG-2)      
1 28912U 05049B   26125.84362170  .00000131  00000+0  00000+0 0  9990
2 28912   9.2674  54.5755 0000892  25.8122 132.8584  1.00279737  6577
DMSP 5D-3 F17 (USA 191) 
1 29522U 06050A   26126.94485881  .00000070  00000+0  58777-4 0  9999
2 29522  98.7391 134.3578 0010275 167.1048 193.0390 14.14985741  6591
FENGYUN 3A              
1 32958U 08026A   26126.81429481  .00000092  00000+0  64036-4 0  9990
2 32958  98.6865  68.4265 0007643 244.6392 115.3993 14.19562422929537
GOES 14                 
1 35491U 09033A   26126.88279566 -.00000090  00000+0  00000+0 0  9993
2 35491   1.5837  83.5150 0002008 332.1622 291.8576  1.00118289  6171
DMSP 5D-3 F18 (USA 210) 
1 35951U 09057A   26126.91334168  .00000244  00000+0  14943-3 0  9999
2 35951  98.9024 107.7776 0011395  14.5013 345.6485 14.14872813853757
EWS-G2 (GOES 15)        
1 36411U 10008A   26126.88055463  .00000030  00000+0  00000+0 0  9991
2 36411   1.1668  83.5777 0004673  25.6584 135.8008  1.00273788 59225
COMS 1                  
1 36744U 10032A   26126.85791859 -.00000335  00000+0  00000+0 0  9999
2 36744   4.7000  75.8985 0001176 341.0982 244.7123  1.00270926 50679
FENGYUN 3B              
1 37214U 10059A   26127.01464333 -.00000277  00000+0 -11990-3 0  9994
2 37214  98.9648 172.8472 0021186 305.4453 170.1290 14.14830414801601
SUOMI NPP               
1 37849U 11061A   26126.89460252  .00000074  00000+0  56078-4 0  9993
2 37849  98.7936  68.0579 0002858  84.8135 275.3367 14.19508451752580
METEOSAT-10 (MSG-3)     
1 38552U 12035B   26126.61884278  .00000002  00000+0  00000+0 0  9995
2 38552   4.5740  61.1930 0002096 325.6926  60.4637  1.00270436 50447
METOP-B                 
1 38771U 12049A   26126.86974038  .00000093  00000+0  62517-4 0  9990
2 38771  98.6534 179.1868 0003578 103.7812 256.3764 14.21436428707392
INSAT-3D                
1 39216U 13038B   26126.92960317 -.00000330  00000+0  00000+0 0  9995
2 39216   1.8196  83.0370 0001225 294.4945 311.4355  1.00272633 46664
FENGYUN 3C              
1 39260U 13052A   26126.91164089  .00000077  00000+0  60252-4 0  9998
2 39260  98.4960 102.6883 0015370 138.5958 221.6384 14.15745305652724
METEOR-M 2              
1 40069U 14037A   26126.96723568  .00000172  00000+0  98047-4 0  9998
2 40069  98.5098 104.1720 0006174 145.9266 214.2310 14.21450782613463
HIMAWARI-8              
1 40267U 14060A   26126.93176984 -.00000268  00000+0  00000+0 0  9999
2 40267   0.0303  85.7841 0001034 341.1619 273.9586  1.00272355 42341
FENGYUN 2G              
1 40367U 14090A   26126.90531088 -.00000294  00000+0  00000+0 0  9999
2 40367   5.5355  73.3020 0002599 135.7798  81.3584  1.00269158 41584
METEOSAT-11 (MSG-4)     
1 40732U 15034A   26126.90576972  .00000070  00000+0  00000+0 0  9996
2 40732   3.0993  71.3254 0001565 348.1818 140.6810  1.00267338  6808
ELEKTRO-L 2             
1 41105U 15074A   26126.68717916 -.00000109  00000+0  00000+0 0  9999
2 41105   6.5912  71.0234 0001890 271.7127 114.6616  1.00271219 38096
INSAT-3DR               
1 41752U 16054A   26126.88459228 -.00000070  00000+0  00000+0 0  9994
2 41752   0.1388  87.3162 0010973 193.6881 336.2003  1.00272730 35405
HIMAWARI-9              
1 41836U 16064A   26126.93176984 -.00000267  00000+0  00000+0 0  9997
2 41836   0.0378 126.7063 0001434 308.3632 265.9356  1.00273053 34794
GOES 16                 
1 41866U 16071A   26126.88323631 -.00000083  00000+0  00000+0 0  9991
2 41866   0.2369  85.6293 0001128 275.1763  77.1907  1.00272820 34687
FENGYUN 4A              
1 41882U 16077A   26126.92847649 -.00000348  00000+0  00000+0 0  9994
2 41882   2.2188  80.7043 0008120 143.9947  98.0802  1.00274664 34516
CYGFM05                 
1 41884U 16078A   26126.46864033  .00018363  00000+0  26594-3 0  9997
2 41884  34.9558 176.4472 0006933 125.0057 235.1318 15.54899707522257
CYGFM04                 
1 41885U 16078B   26126.43405679  .00024008  00000+0  29507-3 0  9992
2 41885  34.9316 146.3517 0006926 171.4727 188.6117 15.59241848522472
CYGFM02                 
1 41886U 16078C   26126.44254008  .00026762  00000+0  29930-3 0  9991
2 41886  34.9396 141.9191 0008100 171.8283 188.2576 15.61667655522631
CYGFM01                 
1 41887U 16078D   26126.53889947  .00019282  00000+0  27285-3 0  9998
2 41887  34.9389 177.3652 0006567 119.2518 240.8863 15.55522162522215
CYGFM08                 
1 41888U 16078E   26126.50184270  .00021809  00000+0  28188-3 0  9994
2 41888  34.9421 158.2242 0008447 150.3799 209.7405 15.57914015522469
CYGFM07                 
1 41890U 16078G   26126.46354952  .00021176  00000+0  27296-3 0  9994
2 41890  34.9437 146.8550 0007338 170.1004 189.9866 15.57999106522487
CYGFM03                 
1 41891U 16078H   26126.43446414  .00021968  00000+0  28319-3 0  9993
2 41891  34.9393 148.9994 0006355 158.7266 201.3724 15.58000287522457
FENGYUN 3D              
1 43010U 17072A   26126.98994613 -.00000039  00000+0  35120-5 0  9999
2 43010  99.0110 100.6746 0001886 132.2639 227.8697 14.19730118439140
NOAA 20 (JPSS-1)        
1 43013U 17073A   26126.90788111  .00000057  00000+0  48184-4 0  9991
2 43013  98.7755  66.7414 0001899  58.5412 301.5950 14.19549889438617
GOES 17                 
1 43226U 18022A   26126.81493175 -.00000175  00000+0  00000+0 0  9997
2 43226   0.8319  86.2796 0000756 317.7102  24.5705  1.00271855 30002
FENGYUN 2H              
1 43491U 18050A   26126.91963646 -.00000122  00000+0  00000+0 0  9990
2 43491   2.9257  79.5376 0001251 142.6006  53.0707  1.00274496 29021
METOP-C                 
1 43689U 18087A   26126.89124671  .00000101  00000+0  66049-4 0  9999
2 43689  98.6667 187.2440 0000337  57.5761 302.5449 14.21500778388960
GEO-KOMPSAT-2A          
1 43823U 18100A   26126.92934316 -.00000336  00000+0  00000+0 0  9995
2 43823   0.0443  96.0171 0002323 338.2774 253.3257  1.00270996 27214
METEOR-M2 2             
1 44387U 19038A   26126.93975418  .00000183  00000+0  99142-4 0  9990
2 44387  98.9139 113.6209 0002093 111.6131 248.5270 14.24354841355420
ARKTIKA-M 1             
1 47719U 21016A   26126.12455266 -.00000147  00000+0  00000+0 0  9997
2 47719  63.2266  63.7141 7272544 269.7355  14.8736  2.00605981 37948
FENGYUN 3E              
1 49008U 21062A   26126.97847951  .00000080  00000+0  58351-4 0  9992
2 49008  98.7503 130.8456 0001391 161.9072 198.2154 14.19901049250737
GOES 18                 
1 51850U 22021A   26126.73430991  .00000104  00000+0  00000+0 0  9992
2 51850   0.0384  82.6098 0000654  16.3097 253.0311  1.00271490  6173
NOAA 21 (JPSS-2)        
1 54234U 22150A   26126.94207266  .00000067  00000+0  52343-4 0  9994
2 54234  98.7043  66.4281 0001248 357.9979   2.1192 14.19557929180693
METEOSAT-12 (MTG-I1)    
1 54743U 22170C   26126.90386306  .00000000  00000+0  00000+0 0  9995
2 54743   0.7350  23.9452 0001005   1.8858 163.9525  1.00271912 12569
TIANMU-1 03             
1 55973U 23039A   26126.96728186  .00012447  00000+0  25582-3 0  9992
2 55973  97.5228 299.3648 0002079 223.6111 136.4973 15.46133307174467
TIANMU-1 04             
1 55974U 23039B   26126.97208866  .00012835  00000+0  25874-3 0  9997
2 55974  97.5163 298.5224 0002744 222.3934 137.7104 15.46689710174470
TIANMU-1 05             
1 55975U 23039C   26126.94618330  .00012781  00000+0  26321-3 0  9994
2 55975  97.5209 298.9729 0001525 258.8483 101.2595 15.46067824174448
TIANMU-1 06             
1 55976U 23039D   26126.90845714  .00012790  00000+0  25857-3 0  9992
2 55976  97.5216 299.5289 0001864 248.3824 111.7227 15.46610016174461
FENGYUN 3G              
1 56232U 23055A   26126.67994031  .00020910  00000+0  33581-3 0  9993
2 56232  49.9917 200.1330 0006143   5.9001 354.2037 15.52925116173559
METEOR-M2 3             
1 57166U 23091A   26126.99498061  .00000002  00000+0  19588-4 0  9999
2 57166  98.6109 182.8094 0002817 297.7844  62.3049 14.24043284148651
TIANMU-1 07             
1 57399U 23101A   26126.95065701  .00005401  00000+0  19207-3 0  9991
2 57399  97.2618 178.5739 0000440 292.4600  67.6594 15.29394756155345
TIANMU-1 08             
1 57400U 23101B   26126.91796419  .00004749  00000+0  16906-3 0  9994
2 57400  97.2607 178.3173 0002188 250.9424 109.1580 15.29422090155339
TIANMU-1 09             
1 57401U 23101C   26126.96703719  .00005351  00000+0  19007-3 0  9996
2 57401  97.2566 177.8036 0000967 299.4800  60.6345 15.29435898155346
TIANMU-1 10             
1 57402U 23101D   26126.93406922  .00005431  00000+0  19269-3 0  9999
2 57402  97.2644 178.7794 0002299 278.9404  81.1577 15.29470550155335
FENGYUN 3F              
1 57490U 23111A   26126.96330891  .00000053  00000+0  45472-4 0  9992
2 57490  98.6846 197.7365 0001109 116.0540 244.0751 14.19931879143018
ARKTIKA-M 2             
1 58584U 23198A   26126.38721155  .00000160  00000+0  00000+0 0  9997
2 58584  63.2195 159.0205 6891147 267.5568  18.8210  2.00595048 17488
TIANMU-1 11             
1 58645U 23205A   26126.95985637  .00004809  00000+0  18637-3 0  9997
2 58645  97.3475 149.1733 0010201 141.5208 218.6760 15.26571638131232
TIANMU-1 12             
1 58646U 23205B   26126.99462389  .00005062  00000+0  19639-3 0  9991
2 58646  97.3462 148.9720 0008856 125.8242 234.3821 15.26522996131223
TIANMU-1 13             
1 58647U 23205C   26126.95798382  .00004891  00000+0  18953-3 0  9990
2 58647  97.3491 149.2009 0009412 111.0490 249.1756 15.26577263131218
TIANMU-1 14             
1 58648U 23205D   26127.00939970  .00005005  00000+0  19433-3 0  9990
2 58648  97.3426 148.4669 0010048 113.4352 246.7944 15.26493169131225
TIANMU-1 19             
1 58660U 23208A   26126.92125199  .00007166  00000+0  24210-3 0  9996
2 58660  97.4457 243.0426 0006470 102.5531 257.6434 15.30949262131016
TIANMU-1 20             
1 58661U 23208B   26126.92581404  .00007298  00000+0  23750-3 0  9996
2 58661  97.4399 243.6400 0008594 109.7120 250.5050 15.32139335131102
TIANMU-1 21             
1 58662U 23208C   26126.90948551  .00008144  00000+0  24707-3 0  9999
2 58662  97.4457 246.1299 0008542 104.0700 256.1493 15.34341257131234
TIANMU-1 22             
1 58663U 23208D   26126.95516869  .00006413  00000+0  22016-3 0  9996
2 58663  97.4454 243.0461 0005122 119.7807 240.3944 15.30478499131029
TIANMU-1 15             
1 58700U 24004A   26126.94026815  .00005264  00000+0  20376-3 0  9999
2 58700  97.4679 313.1350 0008273 127.5346 232.6646 15.26594137129484
TIANMU-1 16             
1 58701U 24004B   26126.46352443  .00005672  00000+0  21919-3 0  9993
2 58701  97.4623 311.9417 0006679 129.8000 230.3828 15.26627497129410
TIANMU-1 17             
1 58702U 24004C   26126.97313454  .00005243  00000+0  20470-3 0  9994
2 58702  97.4653 312.9205 0006614 132.9397 227.2398 15.26325017129480
TIANMU-1 18             
1 58703U 24004D   26126.95655729  .00004756  00000+0  18452-3 0  9992
2 58703  97.4671 313.1336 0005321 126.1550 234.0182 15.26588871129485
INSAT-3DS               
1 58990U 24033A   26126.92015646 -.00000149  00000+0  00000+0 0  9996
2 58990   0.0314 107.6128 0001913 299.8849 230.6105  1.00273225 46659
METEOR-M2 4             
1 59051U 24039A   26126.96294567  .00000017  00000+0  27247-4 0  9996
2 59051  98.6988  86.7859 0006020 293.8587  66.1960 14.22425221113405
GOES 19                 
1 60133U 24119A   26126.88904300 -.00000241  00000+0  00000+0 0  9995
2 60133   0.0060  27.9101 0000875  72.7127   8.9938  1.00271639  6559
FENGYUN 3H              
1 65815U 25219A   26126.81820150  .00000063  00000+0  50002-4 0  9995
2 65815  98.6752  68.3969 0001253 105.9495 254.1820 14.19912960 31513
